NORAD_CAT_ID,OBJECT_NAME,OBJECT_TYPE,EPOCH,MEAN_MOTION,ECCENTRICITY,INCLINATION,RA_OF_ASC_NODE,ARG_OF_PERICENTER,MEAN_ANOMALY,BSTAR,MEAN_MOTION_DOT,MEAN_MOTION_DDOT,TLE_LINE0,TLE_LINE1,TLE_LINE2,SEMIMAJOR_AXIS,PERIOD,APOGEE,PERIGEE,DECAYED
55639.0,STARLINK-5508,PAYLOAD,2024-01-26 03:42:41,14.98332044,0.0002728,70.0012,334.8046,255.6021,104.4835,-1.0079e-06,-1.05e-06,0.0,0 STARLINK-5508,1 55639U 23021M   24026.15464180 -.00000105  00000-0 -10079-5 0  9999,2 55639  70.0012 334.8046 0002728 255.6021 104.4835 14.98332044 52626,6950.187,96.107,573.948,570.156,0.0
55639.0,STARLINK-5508,PAYLOAD,2024-01-26 06:54:57,14.98333621,0.0002713,70.0013,334.4683,255.3319,104.7539,1.7329e-05,1.14e-06,0.0,0 STARLINK-5508,1 55639U 23021M   24026.28816012  .00000114  00000-0  17329-4 0  9990,2 55639  70.0013 334.4683 0002713 255.3319 104.7539 14.98333621 52942,6950.182,96.107,573.932,570.161,0.0
55639.0,STARLINK-5508,PAYLOAD,2024-01-26 19:44:02,14.98323753,0.0002547,70.0018,333.1214,255.099,104.9887,1.0946e-05,3.8e-07,0.0,0 STARLINK-5508,1 55639U 23021M   24026.82224662  .00000038  00000-0  10946-4 0  9997,2 55639  70.0018 333.1214 0002547 255.0990 104.9887 14.98323753 52729,6950.212,96.107,573.847,570.307,0.0
55639.0,STARLINK-5508,PAYLOAD,2024-01-27 06:56:58,14.98323198,0.0002524,70.0019,331.9422,255.8117,104.2761,8.8624e-06,1.3e-07,0.0,0 STARLINK-5508,1 55639U 23021M   24027.28956912  .00000013  00000-0  88624-5 0  9990,2 55639  70.0019 331.9422 0002524 255.8117 104.2761 14.98323198 53099,6950.214,96.107,573.833,570.325,0.0
55639.0,STARLINK-5508,PAYLOAD,2024-01-27 21:22:10,14.98333018,0.0002579,70.0022,330.4283,255.5255,104.5618,1.9865e-05,1.44e-06,0.0,0 STARLINK-5508,1 55639U 23021M   24027.89040295  .00000144  00000-0  19865-4 0  9990,2 55639  70.0022 330.4283 0002579 255.5255 104.5618 14.98333018 53188,6950.184,96.107,573.841,570.256,0.0
55639.0,STARLINK-5508,PAYLOAD,2024-01-28 03:46:43,14.98332347,0.0002609,70.0019,329.7549,253.2535,106.8338,1.2333e-05,5.4e-07,0.0,0 STARLINK-5508,1 55639U 23021M   24028.15744305  .00000054  00000-0  12333-4 0  9996,2 55639  70.0019 329.7549 0002609 253.2535 106.8338 14.98332347 52929,6950.186,96.107,573.864,570.237,0.0
55639.0,STARLINK-5508,PAYLOAD,2024-01-28 05:22:51,14.98332381,0.0002605,70.0019,329.5866,253.5205,106.5668,1.2782e-05,6e-07,0.0,0 STARLINK-5508,1 55639U 23021M   24028.22420297  .00000060  00000-0  12782-4 0  9990,2 55639  70.0019 329.5866 0002605 253.5205 106.5668 14.98332381 53238,6950.186,96.107,573.861,570.24,0.0
55639.0,STARLINK-5508,PAYLOAD,2024-01-28 23:00:20,14.98327109,0.0002691,70.0014,327.7339,257.4088,102.677,3.9306e-05,3.76e-06,0.0,0 STARLINK-5508,1 55639U 23021M   24028.95856564  .00000376  00000-0  39306-4 0  9991,2 55639  70.0014 327.7339 0002691 257.4088 102.6770 14.98327109 53340,6950.202,96.107,573.937,570.197,0.0
55639.0,STARLINK-5508,PAYLOAD,2024-01-29 03:48:44,14.98329884,0.0002647,70.0012,327.2287,255.5699,104.5166,7.1013e-05,7.54e-06,0.0,0 STARLINK-5508,1 55639U 23021M   24029.15884302  .00000754  00000-0  71013-4 0  9996,2 55639  70.0012 327.2287 0002647 255.5699 104.5166 14.98329884 53075,6950.193,96.107,573.898,570.219,0.0
55639.0,STARLINK-5508,PAYLOAD,2024-01-29 19:50:04,14.98333105,0.0002523,70.0016,325.5467,246.2437,113.8458,1.7469e-05,1.16e-06,0.0,0 STARLINK-5508,1 55639U 23021M   24029.82644122  .00000116  00000-0  17469-4 0  9991,2 55639  70.0016 325.5467 0002523 246.2437 113.8458 14.98333105 53472,6950.183,96.107,573.802,570.295,0.0
55639.0,STARLINK-5508,PAYLOAD,2024-01-30 03:50:44,14.98330961,0.0002553,70.0015,324.7052,247.6102,112.4787,-1.1113e-05,-2.26e-06,0.0,0 STARLINK-5508,1 55639U 23021M   24030.16024284 -.00000226  00000-0 -11113-4 0  9995,2 55639  70.0015 324.7052 0002553 247.6102 112.4787 14.98330961 53229,6950.19,96.107,573.829,570.281,0.0
55639.0,STARLINK-5508,PAYLOAD,2024-01-30 05:26:53,14.98330736,0.0002552,70.0014,324.5366,249.6074,110.4811,-1.3833e-05,-2.58e-06,0.0,0 STARLINK-5508,1 55639U 23021M   24030.22700306 -.00000258  00000-0 -13833-4 0  9994,2 55639  70.0014 324.5366 0002552 249.6074 110.4811 14.98330736 53533,6950.191,96.107,573.829,570.282,0.0
55639.0,STARLINK-5508,PAYLOAD,2024-01-30 23:04:21,14.98331944,0.0002667,70.0006,322.6838,256.4098,103.6764,-1.9269e-05,-3.23e-06,0.0,0 STARLINK-5508,1 55639U 23021M   24030.96136134 -.00000323  00000-0 -19269-4 0  9999,2 55639  70.0006 322.6838 0002667 256.4098 103.6764 14.98331944 53641,6950.187,96.107,573.905,570.198,0.0
55639.0,STARLINK-5508,PAYLOAD,2024-01-31 03:52:45,14.98332402,0.0002638,70.0007,322.1789,254.9387,105.148,-1.0595e-05,-2.19e-06,0.0,0 STARLINK-5508,1 55639U 23021M   24031.16164044 -.00000219  00000-0 -10595-4 0  9990,2 55639  70.0007 322.1789 0002638 254.9387 105.1480 14.98332402 53376,6950.185,96.107,573.884,570.217,0.0
55639.0,STARLINK-5508,PAYLOAD,2024-01-31 05:28:53,14.98334827,0.0002821,70.0009,322.0114,258.2011,101.8831,2.8176e-05,2.43e-06,0.0,0 STARLINK-5508,1 55639U 23021M   24031.22839755  .00000243  00000-0  28176-4 0  9994,2 55639  70.0009 322.0114 0002821 258.2011 101.8831 14.98334827 53684,6950.178,96.107,574.004,570.082,0.0
55639.0,STARLINK-5508,PAYLOAD,2024-01-31 18:17:57,14.98342793,0.0002717,70.0009,320.6639,266.0927,93.9921,0.00011756,1.31e-05,0.0,0 STARLINK-5508,1 55639U 23021M   24031.76246690  .00001310  00000-0  11756-3 0  9994,2 55639  70.0009 320.6639 0002717 266.0927  93.9921 14.98342793 53465,6950.153,96.106,573.907,570.13,0.0
55639.0,STARLINK-5508,PAYLOAD,2024-02-01 05:30:53,14.98344629,0.0002591,70.0009,319.4854,266.5231,93.5632,0.00012588,1.41e-05,0.0,0 STARLINK-5508,1 55639U 23021M   24032.22978161  .00001410  00000-0  12588-3 0  9996,2 55639  70.0009 319.4854 0002591 266.5231  93.5632 14.98344629 53839,6950.148,96.106,573.813,570.212,0.0
55639.0,STARLINK-5508,PAYLOAD,2024-02-01 16:43:50,14.98336739,0.0001872,70.0025,318.3137,269.7507,90.3437,-2.5171e-05,-3.93e-06,0.0,0 STARLINK-5508,1 55639U 23021M   24032.69710986 -.00000393  00000-0 -25171-4 0  9990,2 55639  70.0025 318.3137 0001872 269.7507  90.3437 14.98336739 53607,6950.172,96.107,573.338,570.736,0.0
55639.0,STARLINK-5508,PAYLOAD,2024-02-02 03:56:48,14.98313488,0.0002523,70.0014,317.1299,250.3691,109.7196,-0.00017641,-2.196e-05,0.0,0 STARLINK-5508,1 55639U 23021M   24033.16444936 -.00002196  00000-0 -17641-3 0  9997,2 55639  70.0014 317.1299 0002523 250.3691 109.7196 14.98313488 53675,6950.244,96.108,573.862,570.355,0.0
55639.0,STARLINK-5508,PAYLOAD,2024-02-02 19:58:08,14.98328572,0.0003033,69.9999,315.4445,270.0992,89.982,-0.0001887,-2.344e-05,0.0,0 STARLINK-5508,1 55639U 23021M   24033.83204171 -.00002344  00000-0 -18870-3 0  9996,2 55639  69.9999 315.4445 0003033 270.0992  89.9820 14.98328572 53772,6950.197,96.107,574.17,569.954,0.0
55639.0,STARLINK-5508,PAYLOAD,2024-02-02 21:34:16,14.98328517,0.000303,69.9999,315.2765,270.7648,89.3163,-0.00018211,-2.265e-05,0.0,0 STARLINK-5508,1 55639U 23021M   24033.89880168 -.00002265  00000-0 -18211-3 0  9999,2 55639  69.9999 315.2765 0003030 270.7648  89.3163 14.98328517 54085,6950.197,96.107,574.168,569.957,0.0
55639.0,STARLINK-5508,PAYLOAD,2024-02-03 03:58:48,14.98335437,0.0003088,69.9993,314.6042,263.8948,96.1859,-7.8024e-05,-1.024e-05,0.0,0 STARLINK-5508,1 55639U 23021M   24034.16583392 -.00001024  00000-0 -78024-4 0  9990,2 55639  69.9993 314.6042 0003088 263.8948  96.1859 14.98335437 53827,6950.176,96.107,574.187,569.895,0.0
55639.0,STARLINK-5508,PAYLOAD,2024-02-03 05:34:56,14.98335578,0.0003081,69.9994,314.4357,263.2559,96.8249,-7.3758e-05,-9.73e-06,0.0,0 STARLINK-5508,1 55639U 23021M   24034.23259360 -.00000973  00000-0 -73758-4 0  9994,2 55639  69.9994 314.4357 0003081 263.2559  96.8249 14.98335578 54131,6950.176,96.107,574.182,569.899,0.0
55639.0,STARLINK-5508,PAYLOAD,2024-02-03 20:00:09,14.98317905,0.0002918,70.0,312.9215,261.8609,98.2219,0.00015953,1.81e-05,0.0,0 STARLINK-5508,1 55639U 23021M   24034.83343978  .00001810  00000-0  15953-3 0  9990,2 55639  70.0000 312.9215 0002918 261.8609  98.2219 14.98317905 53929,6950.23,96.108,574.123,570.067,0.0
55639.0,STARLINK-5508,PAYLOAD,2024-02-03 21:36:17,14.98318648,0.0002907,70.0001,312.7532,261.9058,98.1771,0.00016511,1.877e-05,0.0,0 STARLINK-5508,1 55639U 23021M   24034.90019961  .00001877  00000-0  16511-3 0  9994,2 55639  70.0001 312.7532 0002907 261.9058  98.1771 14.98318648 54239,6950.228,96.108,574.113,570.073,0.0
55639.0,STARLINK-5508,PAYLOAD,2024-02-04 04:00:49,14.98322384,0.0002833,70.0003,312.0802,259.6496,100.4344,0.00019435,2.226e-05,0.0,0 STARLINK-5508,1 55639U 23021M   24035.16723791  .00002226  00000-0  19435-3 0  9993,2 55639  70.0003 312.0802 0002833 259.6496 100.4344 14.98322384 54271,6950.216,96.107,574.05,570.112,0.0
55639.0,STARLINK-5508,PAYLOAD,2024-02-04 20:02:09,14.98331912,0.0002876,69.9999,310.3954,266.3339,93.7492,5.3798e-05,5.49e-06,0.0,0 STARLINK-5508,1 55639U 23021M   24035.83483719  .00000549  00000-0  53798-4 0  9997,2 55639  69.9999 310.3954 0002876 266.3339  93.7492 14.98331912 54072,6950.187,96.107,574.051,570.053,0.0
55639.0,STARLINK-5508,PAYLOAD,2024-02-04 21:38:17,14.98332337,0.0002875,70.0,310.2269,266.4241,93.6589,5.8042e-05,6e-06,0.0,0 STARLINK-5508,1 55639U 23021M   24035.90159666  .00000600  00000-0  58042-4 0  9991,2 55639  70.0000 310.2269 0002875 266.4241  93.6589 14.98332337 54380,6950.186,96.107,574.049,570.052,0.0
55639.0,STARLINK-5508,PAYLOAD,2024-02-05 12:03:30,14.98333413,0.0002802,70.0003,308.7112,273.5977,86.4861,3.0952e-05,2.76e-06,0.0,0 STARLINK-5508,1 55639U 23021M   24036.50243549  .00000276  00000-0  30952-4 0  9991,2 55639  70.0003 308.7112 0002802 273.5977  86.4861 14.98333413 54476,6950.182,96.107,573.995,570.1,0.0
55639.0,STARLINK-5508,PAYLOAD,2024-02-05 20:04:11,14.98330053,0.0002748,70.0002,307.8696,271.2083,88.8761,-2.8462e-05,-4.33e-06,0.0,0 STARLINK-5508,1 55639U 23021M   24036.83623885 -.00000433  00000-0 -28462-4 0  9992,2 55639  70.0002 307.8696 0002748 271.2083  88.8761 14.98330053 54229,6950.193,96.107,573.968,570.148,0.0
